[Satellite]
VERSION=1.1
NAME=CZ-6A DEB
NICKNAME=CZ-6A DEB
TLE1=1 54573U 22151LZ  22342.30479690  .00002883  00000+0  89387-3 0  9994
TLE2=2 54573  98.7040 347.3242 0116672 215.1498 144.1952 14.38094237  3079
STATUS=0
